STARLINK-3344           
1 51110U 22005G   26068.83152539 -.00000536  00000+0 -15578-4 0  9990
2 51110  53.2182 288.4637 0001436  91.5574 268.5583 15.08837664228900
PRSC-S1                 
1 65055U 25164A   26068.60758212  .00007316  00000+0  46631-3 0  9991
2 65055  41.1290 129.3637 0004466 348.3012  11.7698 15.08919510 33403
